     2.100          NAVIGATION                              RINEX VERSION / TYPE
fic2rin                                 10/26/2017 00:07:48 PGM / RUN BY / DATE
                                                            END OF HEADER
 5 17 10 25 22  0  0.0 -.248281285167D-04  .125055521494D-11  .000000000000D+00
     .440000000000D+02  .150000000000D+01  .510235539073D-08 -.292315646273D+01
    -.298023223877D-07  .525466992985D-02  .716932117939D-05  .515357481766D+04
     .338400000000D+06 -.353902578354D-07  .215857023129D+01 -.763684511185D-07
     .947000849998D+00  .236968750000D+03  .614474176802D+00 -.816641159239D-08
     .240367155114D-09  .100000000000D+01  .197200000000D+04  .000000000000D+00
     .240000000000D+01  .000000000000D+00 -.107102096081D-07  .440000000000D+02
     .331206000000D+06  .400000000000D+01
 6 17 10 25 22  0  0.0  .406549777836D-03  .204636307899D-11  .000000000000D+00
     .113000000000D+03 -.357187500000D+02  .419517474587D-08  .692010909421D+00
    -.183098018169D-05  .581473577768D-03  .897422432899D-05  .515377364540D+04
     .338400000000D+06 -.130385160446D-07  .112612157976D+01 -.298023223877D-07
     .968461240869D+00  .206281250000D+03 -.124106263631D+01 -.786389899153D-08
     .280011663610D-09  .100000000000D+01  .197200000000D+04  .000000000000D+00
     .240000000000D+01  .000000000000D+00  .465661287308D-08  .113000000000D+03
     .331206000000D+06  .400000000000D+01
 7 17 10 25 22  0  0.0  .288378912956D-03 -.511590769747D-11  .000000000000D+00
     .450000000000D+02  .610937500000D+02  .455304679553D-08 -.218231319422D+00
     .315904617310D-05  .110776040237D-01  .799074769020D-05  .515371934319D+04
     .338400000000D+06  .428408384323D-07 -.199257344933D+01  .135973095894D-06
     .960670489656D+00  .224531250000D+03 -.254870952672D+01 -.821641367518D-08
    -.180721813503D-09  .100000000000D+01  .197200000000D+04  .000000000000D+00
     .240000000000D+01  .000000000000D+00 -.111758708954D-07  .450000000000D+02
     .331206000000D+06  .400000000000D+01
 8 17 10 25 22  0  0.0 -.782809220254D-04 -.136424205266D-11  .000000000000D+00
     .760000000000D+02 -.585312500000D+02  .430267922386D-08 -.313487288276D+01
    -.302493572235D-05  .274989241734D-02  .517442822456D-05  .515370940971D+04
     .338400000000D+06  .894069671631D-07  .710206965371D-01  .465661287308D-07
     .968190827777D+00  .283375000000D+03 -.635235913108D+00 -.805247827518D-08
    -.832177520677D-10  .100000000000D+01  .197200000000D+04  .000000000000D+00
     .240000000000D+01  .000000000000D+00  .558793544769D-08  .760000000000D+02
     .331206000000D+06  .400000000000D+01
 9 17 10 25 22  0  0.0  .462939962745D-03  .522959453519D-11  .000000000000D+00
     .410000000000D+02 -.625000000000D-01  .490699011012D-08  .285932044508D+01
     .651925802231D-07  .932288006879D-03  .791065394878D-05  .515374876785D+04
     .338400000000D+06  .800937414169D-07 -.307076747459D+01 -.409781932831D-07
     .953549374565D+00  .222656250000D+03  .177750374165D+01 -.815998275318D-08
    -.242510101519D-09  .100000000000D+01  .197200000000D+04  .000000000000D+00
     .240000000000D+01  .000000000000D+00  .931322574615D-09  .410000000000D+02
     .331206000000D+06  .400000000000D+01
10 17 10 25 22  0  0.0  .968924723566D-04  .841282599140D-11  .000000000000D+00
     .340000000000D+02 -.231250000000D+01  .472591113888D-08 -.156136621495D+01
    -.217929482460D-06  .288008397911D-02  .732950866222D-05  .515366424561D+04
     .338400000000D+06  .391155481339D-07  .217385546208D+01 -.260770320892D-07
     .960217652142D+00  .237062500000D+03 -.288278610018D+01 -.801533387083D-08
     .275725770799D-09  .100000000000D+01  .197200000000D+04  .000000000000D+00
     .240000000000D+01  .000000000000D+00  .186264514923D-08  .340000000000D+02
     .331206000000D+06  .400000000000D+01
11 17 10 25 22  0  0.0 -.723187811673D-03 -.193267624127D-11  .000000000000D+00
     .330000000000D+02 -.623125000000D+02  .579274129093D-08 -.199982207822D+00
    -.334717333317D-05  .169976872858D-01  .760890543461D-05  .515373649979D+04
     .338400000000D+06 -.324100255966D-06  .721790801301D+00 -.167638063431D-07
     .902729974807D+00  .205593750000D+03  .171195601622D+01 -.891287125686D-08
     .195008122871D-09  .100000000000D+01  .197200000000D+04  .000000000000D+00
     .240000000000D+01  .000000000000D+00 -.121071934700D-07  .330000000000D+02
     .331206000000D+06  .400000000000D+01
12 17 10 25 22  0  0.0  .367614440620D-03 -.159161572810D-11  .000000000000D+00
     .420000000000D+02  .294687500000D+02  .405945480687D-08 -.815641833956D+00
     .150687992573D-05  .655777088832D-02  .393390655518D-05  .515370174026D+04
     .338400000000D+06  .670552253723D-07 -.904354562889D+00  .108033418655D-06
     .988197574007D+00  .318218750000D+03  .910884312365D+00 -.809748014969D-08
    -.453590322429D-10  .100000000000D+01  .197200000000D+04  .000000000000D+00
     .240000000000D+01  .000000000000D+00 -.125728547573D-07  .420000000000D+02
     .331206000000D+06  .400000000000D+01
14 17 10 25 22  0  0.0 -.870791263878D-04 -.909494701773D-12  .000000000000D+00
     .740000000000D+02  .812500000000D+01  .458733393801D-08  .231043622084D+01
     .320374965668D-06  .928830518387D-02  .816211104393D-05  .515370426178D+04
     .338400000000D+06  .726431608200D-07 -.298278804066D+01 -.175088644028D-06
     .962011274557D+00  .221062500000D+03 -.194822404177D+01 -.781496838194D-08
    -.291797868838D-09  .100000000000D+01  .197200000000D+04  .000000000000D+00
     .240000000000D+01  .000000000000D+00 -.977888703346D-08  .740000000000D+02
     .331206000000D+06  .400000000000D+01
15 17 10 25 22  0  0.0 -.356840901077D-03 -.227373675443D-12  .000000000000D+00
     .360000000000D+02  .325000000000D+01  .552058709747D-08  .178741999287D+01
     .244006514549D-06  .981535925530D-02  .812672078609D-05  .515363433075D+04
     .338400000000D+06 -.253319740295D-06 -.313610371035D+01  .106170773506D-06
     .929120049968D+00  .208937500000D+03  .622025699947D+00 -.844642325600D-08
    -.275368613065D-09  .100000000000D+01  .197200000000D+04  .000000000000D+00
     .240000000000D+01  .000000000000D+00 -.107102096081D-07  .360000000000D+02
     .331206000000D+06  .400000000000D+01
16 17 10 25 22  0  0.0  .367639586329D-04 -.227373675443D-12  .000000000000D+00
     .113000000000D+03  .329375000000D+02  .394302138552D-08 -.279527852463D+01
     .165961682796D-05  .934971496463D-02  .439025461674D-05  .515378340721D+04
     .338400000000D+06 -.670552253723D-07 -.885468950262D+00 -.139698386192D-06
     .988665015832D+00  .310062500000D+03  .457988129570D+00 -.787068498848D-08
     .335728270144D-10  .100000000000D+01  .197200000000D+04  .000000000000D+00
     .240000000000D+01  .000000000000D+00 -.107102096081D-07  .113000000000D+03
     .331206000000D+06  .400000000000D+01
18 17 10 25 22  0  0.0  .631861388683D-03  .454747350886D-12  .000000000000D+00
     .750000000000D+02  .221875000000D+01  .541843998549D-08 -.216635552435D+01
     .193715095520D-06  .181473769480D-01  .657700002193D-05  .515363084793D+04
     .338400000000D+06  .283122062683D-06  .212628117889D+01  .577419996262D-07
     .925855492683D+00  .227031250000D+03 -.177631723902D+01 -.812783855710D-08
     .370729728096D-09  .100000000000D+01  .197200000000D+04  .000000000000D+00
     .240000000000D+01  .000000000000D+00 -.111758708954D-07  .750000000000D+02
     .331206000000D+06  .400000000000D+01
19 17 10 25 22  0  0.0 -.479238573462D-03  .204636307899D-11  .000000000000D+00
     .115000000000D+03 -.630312500000D+02  .401230998596D-08 -.683477202095D+00
    -.305473804474D-05  .989935337566D-02  .664219260216D-05  .515368527603D+04
     .338400000000D+06 -.372529029846D-07  .178050077072D+00  .141561031342D-06
     .978859055466D+00  .261625000000D+03  .108661357231D+01 -.803676333488D-08
     .464305054455D-11  .100000000000D+01  .197200000000D+04  .000000000000D+00
     .240000000000D+01  .000000000000D+00 -.153668224812D-07  .115000000000D+03
     .331206000000D+06  .400000000000D+01
20 17 10 25 22  0  0.0  .490819104016D-03  .113686837722D-11  .000000000000D+00
     .310000000000D+02 -.334375000000D+01  .555487423995D-08  .160432836070D+01
    -.208616256714D-06  .462956610136D-02  .708177685738D-05  .515374495697D+04
     .338400000000D+06  .409781932831D-07  .207513402989D+01 -.800937414169D-07
     .927221631417D+00  .225406250000D+03  .169885623728D+01 -.843856578585D-08
     .270368404786D-09  .100000000000D+01  .197200000000D+04  .000000000000D+00
     .240000000000D+01  .000000000000D+00 -.838190317154D-08  .310000000000D+02
     .331206000000D+06  .400000000000D+01
21 17 10 25 22  0  0.0 -.467994716018D-03  .329691829393D-11  .000000000000D+00
     .780000000000D+02 -.426875000000D+02  .487448875631D-08 -.126080970434D+01
    -.174902379513D-05  .240260382416D-01  .938586890697D-05  .515358187485D+04
     .338400000000D+06 -.171363353729D-06  .108619853075D+01  .610947608948D-06
     .941167803554D+00  .189968750000D+03 -.163114996598D+01 -.834784772137D-08
     .273939982128D-09  .100000000000D+01  .197200000000D+04  .000000000000D+00
     .240000000000D+01  .000000000000D+00 -.977888703346D-08  .780000000000D+02
     .331206000000D+06  .400000000000D+01
22 17 10 25 22  0  0.0 -.167119316757D-03 -.128466126625D-10  .000000000000D+00
     .410000000000D+02 -.228125000000D+01  .560237621860D-08  .197341736071D+01
    -.162050127983D-06  .717395893298D-02  .698119401932D-05  .515368740082D+04
     .338400000000D+06  .115483999252D-06  .212585631237D+01 -.180676579475D-06
     .923954256552D+00  .227343750000D+03 -.166494197360D+01 -.838677791439D-08
     .264296723305D-09  .100000000000D+01  .197200000000D+04  .000000000000D+00
     .240000000000D+01  .000000000000D+00 -.176951289177D-07  .410000000000D+02
     .331206000000D+06  .400000000000D+01
